[{"OBJECT_NAME":"STARLINK-6360","OBJECT_ID":"2023-094T","EPOCH":"2026-03-09T22:00:01.999584","MEAN_MOTION":15.13769428,"ECCENTRICITY":0.00016307,"INCLINATION":43.001,"RA_OF_ASC_NODE":28.4041,"ARG_OF_PERICENTER":254.8509,"MEAN_ANOMALY":53.5974,"EPHEMERIS_TYPE":0,"CLASSIFICATION_TYPE":"U","NORAD_CAT_ID":57235,"ELEMENT_SET_NO":999,"REV_AT_EPOCH":577,"BSTAR":0.0042750417,"MEAN_MOTION_DOT":0.0007914,"MEAN_MOTION_DDOT":0},{"OBJECT_NAME":"GEESAT-4 10","OBJECT_ID":"2025-170K","EPOCH":"2026-03-09T23:21:58.377312","MEAN_MOTION":15.17890105,"ECCENTRICITY":0.0016786,"INCLINATION":49.9867,"RA_OF_ASC_NODE":229.1245,"ARG_OF_PERICENTER":279.3492,"MEAN_ANOMALY":80.5562,"EPHEMERIS_TYPE":0,"CLASSIFICATION_TYPE":"U","NORAD_CAT_ID":65128,"ELEMENT_SET_NO":999,"REV_AT_EPOCH":3230,"BSTAR":0.00064105503,"MEAN_MOTION_DOT":0.0001293,"MEAN_MOTION_DDOT":0}]
